NORAD_CAT_ID,OBJECT_NAME,OBJECT_TYPE,EPOCH,MEAN_MOTION,ECCENTRICITY,INCLINATION,RA_OF_ASC_NODE,ARG_OF_PERICENTER,MEAN_ANOMALY,BSTAR,MEAN_MOTION_DOT,MEAN_MOTION_DDOT,TLE_LINE0,TLE_LINE1,TLE_LINE2,SEMIMAJOR_AXIS,PERIOD,APOGEE,PERIGEE,DECAYED
56816.0,STARLINK-6067,PAYLOAD,2024-08-09 18:50:28,14.98345747,0.0003402,70.0033,338.8394,267.6098,92.4672,0.00037938,4.438e-05,0.0,0 STARLINK-6067,1 56816U 23078BB  24222.78505697  .00004438  00000-0  37938-3 0  9997,2 56816  70.0033 338.8394 0003402 267.6098  92.4672 14.98345747 67023,6950.144,96.106,574.374,569.645,0.0
56816.0,STARLINK-6067,PAYLOAD,2024-08-10 12:27:58,14.98334507,0.0002914,70.0037,336.9898,265.8284,94.2542,-2.2026e-05,-3.56e-06,0.0,0 STARLINK-6067,1 56816U 23078BB  24223.51942221 -.00000356  00000-0 -22026-4 0  9997,2 56816  70.0037 336.9898 0002914 265.8284  94.2542 14.98334507 67139,6950.179,96.107,574.069,570.019,0.0
56816.0,STARLINK-6067,PAYLOAD,2024-08-10 14:04:06,14.98333922,0.0003134,70.0024,336.8182,266.1205,93.9596,1.1209e-05,4.1e-07,0.0,0 STARLINK-6067,1 56816U 23078BB  24223.58618196  .00000041  00000-0  11209-4 0  9995,2 56816  70.0024 336.8182 0003134 266.1205  93.9596 14.98333922 66888,6950.181,96.107,574.224,569.868,0.0
56816.0,STARLINK-6067,PAYLOAD,2024-08-10 17:16:21,14.98344925,0.0003265,70.0034,336.4855,268.8918,91.1867,0.00017868,2.04e-05,0.0,0 STARLINK-6067,1 56816U 23078BB  24223.71969634  .00002040  00000-0  17868-3 0  9993,2 56816  70.0034 336.4855 0003265 268.8918  91.1867 14.98344925 67165,6950.147,96.106,574.281,569.743,0.0
56816.0,STARLINK-6067,PAYLOAD,2024-08-11 09:17:43,14.98325947,0.0003066,70.0025,334.7996,271.8509,88.2299,0.00016847,1.918e-05,0.0,0 STARLINK-6067,1 56816U 23078BB  24224.38730671  .00001918  00000-0  16847-3 0  9993,2 56816  70.0025 334.7996 0003066 271.8509  88.2299 14.98325947 67261,6950.205,96.107,574.201,569.939,0.0
56816.0,STARLINK-6067,PAYLOAD,2024-08-11 17:18:23,14.98336634,0.0002904,70.0031,333.9578,272.6078,87.4749,0.00028843,3.351e-05,0.0,0 STARLINK-6067,1 56816U 23078BB  24224.72110154  .00003351  00000-0  28843-3 0  9991,2 56816  70.0031 333.9578 0002904 272.6078  87.4749 14.98336634 67317,6950.172,96.107,574.056,570.019,0.0
56816.0,STARLINK-6067,PAYLOAD,2024-08-12 14:08:06,14.98363909,0.0003424,70.0036,331.77,275.0347,85.0421,0.00076821,9.093e-05,0.0,0 STARLINK-6067,1 56816U 23078BB  24225.58896330  .00009093  00000-0  76821-3 0  9991,2 56816  70.0036 331.7700 0003424 275.0347  85.0421 14.98363909 67180,6950.088,96.105,574.333,569.573,0.0
56816.0,STARLINK-6067,PAYLOAD,2024-08-12 17:20:22,14.9837137,0.0002912,70.003,331.4332,275.0749,85.0078,0.00096687,0.00011475,0.0,0 STARLINK-6067,1 56816U 23078BB  24225.72248045  .00011475  00000-0  96687-3 0  9990,2 56816  70.0030 331.4332 0002912 275.0749  85.0078 14.98371370 67469,6950.065,96.104,573.954,569.906,0.0
56816.0,STARLINK-6067,PAYLOAD,2024-08-13 09:21:43,14.98328852,0.0003038,70.0003,329.748,264.7233,95.3579,-0.0002248,-2.774e-05,0.0,0 STARLINK-6067,1 56816U 23078BB  24226.39009147 -.00002774  00000-0 -22480-3 0  9996,2 56816  70.0003 329.7480 0003038 264.7233  95.3579 14.98328852 67564,6950.196,96.107,574.173,569.95,0.0
56816.0,STARLINK-6067,PAYLOAD,2024-08-13 17:22:26,14.98279093,0.0003112,69.9998,328.907,264.8254,95.255,-0.0013828,-0.00016532,0.0,0 STARLINK-6067,1 56816U 23078BB  24226.72391697 -.00016532  00000-0 -13828-2 0  9999,2 56816  69.9998 328.9070 0003112 264.8254  95.2550 14.98279093 67613,6950.35,96.11,574.378,570.052,0.0
56816.0,STARLINK-6067,PAYLOAD,2024-08-13 23:46:58,14.98293333,0.0003363,70.0015,328.2363,276.4901,83.5875,-0.00079394,-9.545e-05,0.0,0 STARLINK-6067,1 56816U 23078BB  24226.99095761 -.00009545  00000-0 -79394-3 0  9998,2 56816  70.0015 328.2363 0003363 276.4901  83.5875 14.98293333 67657,6950.306,96.109,574.509,569.834,0.0
56816.0,STARLINK-6067,PAYLOAD,2024-08-14 12:36:03,14.98304201,0.0002862,70.0037,326.8903,272.0074,88.0757,6.2802e-05,6.56e-06,0.0,0 STARLINK-6067,1 56816U 23078BB  24227.52504498  .00000656  00000-0  62802-4 0  9999,2 56816  70.0037 326.8903 0002862 272.0074  88.0757 14.98304201 67736,6950.273,96.109,574.127,570.149,0.0
56816.0,STARLINK-6067,PAYLOAD,2024-08-14 14:12:11,14.9830607,0.0002908,70.0034,326.7221,271.6126,88.47,0.00015279,1.729e-05,0.0,0 STARLINK-6067,1 56816U 23078BB  24227.59180528  .00001729  00000-0  15279-3 0  9997,2 56816  70.0034 326.7221 0002908 271.6126  88.4700 14.98306070 67489,6950.267,96.109,574.153,570.111,0.0
56816.0,STARLINK-6067,PAYLOAD,2024-08-14 15:48:20,14.98307857,0.0002861,70.0035,326.5539,271.4587,88.6244,0.00027047,3.134e-05,0.0,0 STARLINK-6067,1 56816U 23078BB  24227.65856630  .00003134  00000-0  27047-3 0  9996,2 56816  70.0035 326.5539 0002861 271.4587  88.6244 14.98307857 67497,6950.261,96.108,574.115,570.138,0.0
56816.0,STARLINK-6067,PAYLOAD,2024-08-14 23:49:00,14.98322155,0.0003361,70.0023,325.7112,273.4598,86.6177,0.0010833,0.00012854,0.0,0 STARLINK-6067,1 56816U 23078BB  24227.99236729  .00012854  00000-0  10833-2 0  9997,2 56816  70.0023 325.7112 0003361 273.4598  86.6177 14.98322155 67808,6950.217,96.108,574.418,569.746,0.0
56816.0,STARLINK-6067,PAYLOAD,2024-08-15 12:38:04,14.98367283,0.0003421,70.0024,324.3643,275.4122,84.6647,0.00231,0.00027606,0.0,0 STARLINK-6067,1 56816U 23078BB  24228.52644175  .00027606  00000-0  23100-2 0  9997,2 56816  70.0024 324.3643 0003421 275.4122  84.6647 14.98367283 67626,6950.078,96.105,574.32,569.565,0.0
56816.0,STARLINK-6067,PAYLOAD,2024-08-15 23:51:00,14.9837467,0.0003449,70.0024,323.1863,273.0316,87.0448,0.0016694,0.00019906,0.0,0 STARLINK-6067,1 56816U 23078BB  24228.99375145  .00019906  00000-0  16694-2 0  9990,2 56816  70.0024 323.1863 0003449 273.0316  87.0448 14.98374670 67956,6950.055,96.104,574.317,569.523,0.0
56816.0,STARLINK-6067,PAYLOAD,2024-08-16 09:27:48,14.98359337,0.0003073,70.003,322.1768,273.0957,86.985,0.0014855,0.0001769,0.0,0 STARLINK-6067,1 56816U 23078BB  24229.39430851  .00017690  00000-0  14855-2 0  9996,2 56816  70.0030 322.1768 0003073 273.0957  86.9850 14.98359337 68016,6950.102,96.105,574.103,569.831,0.0
56816.0,STARLINK-6067,PAYLOAD,2024-08-17 07:53:40,14.98339933,0.0003758,70.0027,319.8206,283.9382,76.1359,0.00018172,2.076e-05,0.0,0 STARLINK-6067,1 56816U 23078BB  24230.32894585  .00002076  00000-0  18172-3 0  9998,2 56816  70.0027 319.8206 0003758 283.9382  76.1359 14.98339933 68154,6950.162,96.106,574.639,569.415,0.0
56816.0,STARLINK-6067,PAYLOAD,2024-08-17 15:54:21,14.98336163,0.0003025,70.0015,318.9762,270.6732,89.4081,-0.00018988,-2.358e-05,0.0,0 STARLINK-6067,1 56816U 23078BB  24230.66274485 -.00002358  00000-0 -18988-3 0  9996,2 56816  70.0015 318.9762 0003025 270.6732  89.4081 14.98336163 67944,6950.174,96.107,574.141,569.936,0.0
56816.0,STARLINK-6067,PAYLOAD,2024-08-18 12:44:05,14.98341216,0.0003208,70.0003,316.7901,272.0055,88.0737,0.00010352,1.143e-05,0.0,0 STARLINK-6067,1 56816U 23078BB  24231.53061886  .00001143  00000-0  10352-3 0  9998,2 56816  70.0003 316.7901 0003208 272.0055  88.0737 14.98341216 68331,6950.158,96.106,574.253,569.794,0.0
56816.0,STARLINK-6067,PAYLOAD,2024-08-18 15:56:21,14.98345226,0.0003103,70.001,316.4558,267.8258,92.2546,0.00013986,1.577e-05,0.0,0 STARLINK-6067,1 56816U 23078BB  24231.66413431  .00001577  00000-0  13986-3 0  9996,2 56816  70.0010 316.4558 0003103 267.8258  92.2546 14.98345226 68098,6950.146,96.106,574.167,569.854,0.0
56816.0,STARLINK-6067,PAYLOAD,2024-08-19 04:45:26,14.98327637,0.0003056,70.001,315.1085,264.2915,95.7895,8.7381e-05,9.5e-06,0.0,0 STARLINK-6067,1 56816U 23078BB  24232.19822510  .00000950  00000-0  87381-4 0  9992,2 56816  70.0010 315.1085 0003056 264.2915  95.7895 14.98327637 68436,6950.2,96.107,574.189,569.941,0.0
56816.0,STARLINK-6067,PAYLOAD,2024-08-19 09:33:51,14.98327073,0.0003125,70.0002,314.6021,270.7299,89.3502,7.9472e-05,8.55e-06,0.0,0 STARLINK-6067,1 56816U 23078BB  24232.39850729  .00000855  00000-0  79472-4 0  9993,2 56816  70.0002 314.6021 0003125 270.7299  89.3502 14.98327073 68208,6950.202,96.107,574.239,569.895,0.0
56816.0,STARLINK-6067,PAYLOAD,2024-08-20 04:47:27,14.98336541,0.0003136,70.0015,312.5824,270.2421,89.8379,6.3629e-05,6.66e-06,0.0,0 STARLINK-6067,1 56816U 23078BB  24233.19961946  .00000666  00000-0  63629-4 0  9993,2 56816  70.0015 312.5824 0003136 270.2421  89.8379 14.98336541 68582,6950.173,96.107,574.217,569.858,0.0
56816.0,STARLINK-6067,PAYLOAD,2024-08-20 14:24:15,14.98344331,0.0002934,70.0023,311.5732,268.3106,91.7717,0.00026237,3.04e-05,0.0,0 STARLINK-6067,1 56816U 23078BB  24233.60017473  .00003040  00000-0  26237-3 0  9998,2 56816  70.0023 311.5732 0002934 268.3106  91.7717 14.98344331 68383,6950.149,96.106,574.053,569.974,0.0
56816.0,STARLINK-6067,PAYLOAD,2024-08-21 04:49:27,14.98336137,0.0002648,70.0027,310.0591,265.9707,94.115,0.00025019,2.894e-05,0.0,0 STARLINK-6067,1 56816U 23078BB  24234.20101800  .00002894  00000-0  25019-3 0  9996,2 56816  70.0027 310.0591 0002648 265.9707  94.1150 14.98336137 68738,6950.174,96.107,573.879,570.199,0.0
56816.0,STARLINK-6067,PAYLOAD,2024-08-21 14:26:16,14.98332523,0.000279,70.0019,309.0485,268.0573,92.0267,0.00015345,1.739e-05,0.0,0 STARLINK-6067,1 56816U 23078BB  24234.60157962  .00001739  00000-0  15345-3 0  9998,2 56816  70.0019 309.0485 0002790 268.0573  92.0267 14.98332523 68531,6950.185,96.107,573.989,570.111,0.0
56816.0,STARLINK-6067,PAYLOAD,2024-08-22 04:51:27,14.98349992,0.0003034,70.0012,307.5327,272.9759,87.1053,0.00026961,3.127e-05,0.0,0 STARLINK-6067,1 56816U 23078BB  24235.20240688  .00003127  00000-0  26961-3 0  9992,2 56816  70.0012 307.5327 0003034 272.9759  87.1053 14.98349992 68888,6950.131,96.106,574.105,569.887,0.0
